ACS3                    
1 59588U 24077B   24183.43976916  .00000076  00000+0  12385-3 0  9992
2 59588  97.4056 248.3097 0021312  58.2953 302.0272 13.67689129  9357
